[{"OBJECT_NAME":"STARLINK-37354","OBJECT_ID":"2026-082R","EPOCH":"2026-04-28T20:00:01.000224","MEAN_MOTION":15.80829818,"ECCENTRICITY":0.0001208,"INCLINATION":97.2853,"RA_OF_ASC_NODE":341.2794,"ARG_OF_PERICENTER":87.3505,"MEAN_ANOMALY":108.7184,"EPHEMERIS_TYPE":0,"CLASSIFICATION_TYPE":"U","NORAD_CAT_ID":68743,"ELEMENT_SET_NO":999,"REV_AT_EPOCH":324,"BSTAR":-0.00011948,"MEAN_MOTION_DOT":-0.00022982,"MEAN_MOTION_DDOT":0},{"OBJECT_NAME":"STARLINK-37344","OBJECT_ID":"2026-082S","EPOCH":"2026-04-28T20:00:01.000224","MEAN_MOTION":15.75229403,"ECCENTRICITY":0.0001402,"INCLINATION":97.2844,"RA_OF_ASC_NODE":341.2611,"ARG_OF_PERICENTER":98.0311,"MEAN_ANOMALY":54.8482,"EPHEMERIS_TYPE":0,"CLASSIFICATION_TYPE":"U","NORAD_CAT_ID":68744,"ELEMENT_SET_NO":999,"REV_AT_EPOCH":324,"BSTAR":-0.00060613,"MEAN_MOTION_DOT":-0.00089749,"MEAN_MOTION_DDOT":0},{"OBJECT_NAME":"STARLINK-37267","OBJECT_ID":"2026-082T","EPOCH":"2026-04-28T20:00:01.000224","MEAN_MOTION":15.76196984,"ECCENTRICITY":0.0001612,"INCLINATION":97.2848,"RA_OF_ASC_NODE":341.2793,"ARG_OF_PERICENTER":85.6007,"MEAN_ANOMALY":110.7076,"EPHEMERIS_TYPE":0,"CLASSIFICATION_TYPE":"U","NORAD_CAT_ID":68745,"ELEMENT_SET_NO":999,"REV_AT_EPOCH":324,"BSTAR":-0.0095904,"MEAN_MOTION_DOT":-0.0133619,"MEAN_MOTION_DDOT":0},{"OBJECT_NAME":"STARLINK-37347","OBJECT_ID":"2026-082U","EPOCH":"2026-04-28T20:00:01.000224","MEAN_MOTION":15.80840823,"ECCENTRICITY":0.0001342,"INCLINATION":97.2845,"RA_OF_ASC_NODE":341.2836,"ARG_OF_PERICENTER":75.9239,"MEAN_ANOMALY":132.9586,"EPHEMERIS_TYPE":0,"CLASSIFICATION_TYPE":"U","NORAD_CAT_ID":68746,"ELEMENT_SET_NO":999,"REV_AT_EPOCH":324,"BSTAR":-0.00020998,"MEAN_MOTION_DOT":-0.00040224,"MEAN_MOTION_DDOT":0},{"OBJECT_NAME":"STARLINK-37268","OBJECT_ID":"2026-082V","EPOCH":"2026-04-28T20:00:01.000224","MEAN_MOTION":15.75215147,"ECCENTRICITY":0.0001044,"INCLINATION":97.2842,"RA_OF_ASC_NODE":341.2731,"ARG_OF_PERICENTER":83.3202,"MEAN_ANOMALY":99.5566,"EPHEMERIS_TYPE":0,"CLASSIFICATION_TYPE":"U","NORAD_CAT_ID":68747,"ELEMENT_SET_NO":999,"REV_AT_EPOCH":324,"BSTAR":-0.0004913,"MEAN_MOTION_DOT":-0.00072865,"MEAN_MOTION_DDOT":0},{"OBJECT_NAME":"STARLINK-37325","OBJECT_ID":"2026-082W","EPOCH":"2026-04-28T20:00:01.000224","MEAN_MOTION":15.80828534,"ECCENTRICITY":0.0001316,"INCLINATION":97.2848,"RA_OF_ASC_NODE":341.2891,"ARG_OF_PERICENTER":75.4798,"MEAN_ANOMALY":141.9526,"EPHEMERIS_TYPE":0,"CLASSIFICATION_TYPE":"U","NORAD_CAT_ID":68748,"ELEMENT_SET_NO":999,"REV_AT_EPOCH":324,"BSTAR":-5.0719e-5,"MEAN_MOTION_DOT":-9.852e-5,"MEAN_MOTION_DDOT":0},{"OBJECT_NAME":"STARLINK-37324","OBJECT_ID":"2026-082X","EPOCH":"2026-04-28T20:00:01.000224","MEAN_MOTION":15.80818535,"ECCENTRICITY":0.0001214,"INCLINATION":97.2846,"RA_OF_ASC_NODE":341.292,"ARG_OF_PERICENTER":94.6925,"MEAN_ANOMALY":131.2954,"EPHEMERIS_TYPE":0,"CLASSIFICATION_TYPE":"U","NORAD_CAT_ID":68749,"ELEMENT_SET_NO":999,"REV_AT_EPOCH":324,"BSTAR":1.2223e-5,"MEAN_MOTION_DOT":2.2e-5,"MEAN_MOTION_DDOT":0},{"OBJECT_NAME":"STARLINK-37350","OBJECT_ID":"2026-082Y","EPOCH":"2026-04-28T20:00:01.000224","MEAN_MOTION":15.75215335,"ECCENTRICITY":0.0001262,"INCLINATION":97.2844,"RA_OF_ASC_NODE":341.2718,"ARG_OF_PERICENTER":95.3685,"MEAN_ANOMALY":83.5117,"EPHEMERIS_TYPE":0,"CLASSIFICATION_TYPE":"U","NORAD_CAT_ID":68750,"ELEMENT_SET_NO":999,"REV_AT_EPOCH":324,"BSTAR":-0.0005198,"MEAN_MOTION_DOT":-0.0007705,"MEAN_MOTION_DDOT":0},{"OBJECT_NAME":"STARLINK-37277","OBJECT_ID":"2026-082Z","EPOCH":"2026-04-28T20:00:01.000224","MEAN_MOTION":15.80831553,"ECCENTRICITY":0.0001279,"INCLINATION":97.2844,"RA_OF_ASC_NODE":341.2901,"ARG_OF_PERICENTER":83.6412,"MEAN_ANOMALY":138.0689,"EPHEMERIS_TYPE":0,"CLASSIFICATION_TYPE":"U","NORAD_CAT_ID":68751,"ELEMENT_SET_NO":999,"REV_AT_EPOCH":324,"BSTAR":-0.00010361,"MEAN_MOTION_DOT":-0.00019957,"MEAN_MOTION_DDOT":0},{"OBJECT_NAME":"STARLINK-37342","OBJECT_ID":"2026-082AA","EPOCH":"2026-04-28T20:00:01.000224","MEAN_MOTION":15.75149142,"ECCENTRICITY":0.0001215,"INCLINATION":97.2845,"RA_OF_ASC_NODE":341.2697,"ARG_OF_PERICENTER":122.9141,"MEAN_ANOMALY":50.0992,"EPHEMERIS_TYPE":0,"CLASSIFICATION_TYPE":"U","NORAD_CAT_ID":68752,"ELEMENT_SET_NO":999,"REV_AT_EPOCH":324,"BSTAR":-0.00038217,"MEAN_MOTION_DOT":-0.00056656,"MEAN_MOTION_DDOT":0},{"OBJECT_NAME":"2026-083A","OBJECT_ID":"2026-083A","EPOCH":"2026-04-28T20:41:18.396672","MEAN_MOTION":15.22096713,"ECCENTRICITY":0.0064529,"INCLINATION":98.2659,"RA_OF_ASC_NODE":265.3128,"ARG_OF_PERICENTER":39.2724,"MEAN_ANOMALY":321.3164,"EPHEMERIS_TYPE":0,"CLASSIFICATION_TYPE":"U","NORAD_CAT_ID":68753,"ELEMENT_SET_NO":999,"REV_AT_EPOCH":182,"BSTAR":0.00021104,"MEAN_MOTION_DOT":5.027e-5,"MEAN_MOTION_DDOT":0},{"OBJECT_NAME":"2026-083B","OBJECT_ID":"2026-083B","EPOCH":"2026-04-28T07:40:17.789376","MEAN_MOTION":15.06552311,"ECCENTRICITY":0.00089674,"INCLINATION":98.2526,"RA_OF_ASC_NODE":264.3646,"ARG_OF_PERICENTER":219.441,"MEAN_ANOMALY":140.6163,"EPHEMERIS_TYPE":0,"CLASSIFICATION_TYPE":"U","NORAD_CAT_ID":68754,"ELEMENT_SET_NO":999,"REV_AT_EPOCH":171,"BSTAR":0.00016986141,"MEAN_MOTION_DOT":2.443e-5,"MEAN_MOTION_DDOT":0},{"OBJECT_NAME":"2026-083D","OBJECT_ID":"2026-083D","EPOCH":"2026-04-28T08:05:02.349600","MEAN_MOTION":15.31523437,"ECCENTRICITY":0.00138527,"INCLINATION":96.9054,"RA_OF_ASC_NODE":258.75,"ARG_OF_PERICENTER":228.4932,"MEAN_ANOMALY":131.5123,"EPHEMERIS_TYPE":0,"CLASSIFICATION_TYPE":"U","NORAD_CAT_ID":68756,"ELEMENT_SET_NO":999,"REV_AT_EPOCH":173,"BSTAR":0.00029344462,"MEAN_MOTION_DOT":8.889e-5,"MEAN_MOTION_DDOT":0},{"OBJECT_NAME":"2026-083E","OBJECT_ID":"2026-083E","EPOCH":"2026-04-28T06:03:49.370400","MEAN_MOTION":15.26149308,"ECCENTRICITY":0.00584861,"INCLINATION":98.2484,"RA_OF_ASC_NODE":264.6217,"ARG_OF_PERICENTER":38.3683,"MEAN_ANOMALY":322.169,"EPHEMERIS_TYPE":0,"CLASSIFICATION_TYPE":"U","NORAD_CAT_ID":68757,"ELEMENT_SET_NO":999,"REV_AT_EPOCH":172,"BSTAR":0.0059938404,"MEAN_MOTION_DOT":0.00165829,"MEAN_MOTION_DDOT":0},{"OBJECT_NAME":"2026-083F","OBJECT_ID":"2026-083F","EPOCH":"2026-04-28T07:40:11.502048","MEAN_MOTION":15.06609006,"ECCENTRICITY":0.00107287,"INCLINATION":96.9526,"RA_OF_ASC_NODE":257.5062,"ARG_OF_PERICENTER":214.0248,"MEAN_ANOMALY":146.0294,"EPHEMERIS_TYPE":0,"CLASSIFICATION_TYPE":"U","NORAD_CAT_ID":68758,"ELEMENT_SET_NO":999,"REV_AT_EPOCH":169,"BSTAR":0.00019638128,"MEAN_MOTION_DOT":2.859e-5,"MEAN_MOTION_DDOT":0},{"OBJECT_NAME":"2026-083G","OBJECT_ID":"2026-083G","EPOCH":"2026-04-28T07:39:45.032544","MEAN_MOTION":15.06650581,"ECCENTRICITY":0.00109032,"INCLINATION":96.953,"RA_OF_ASC_NODE":257.5098,"ARG_OF_PERICENTER":214.0926,"MEAN_ANOMALY":145.9604,"EPHEMERIS_TYPE":0,"CLASSIFICATION_TYPE":"U","NORAD_CAT_ID":68759,"ELEMENT_SET_NO":999,"REV_AT_EPOCH":168,"BSTAR":0.0001895795,"MEAN_MOTION_DOT":2.761e-5,"MEAN_MOTION_DDOT":0},{"OBJECT_NAME":"DAQI-2","OBJECT_ID":"2026-084A","EPOCH":"2026-04-28T21:10:52.046112","MEAN_MOTION":14.57592536,"ECCENTRICITY":7.15e-5,"INCLINATION":98.2874,"RA_OF_ASC_NODE":193.2551,"ARG_OF_PERICENTER":216.4961,"MEAN_ANOMALY":143.6189,"EPHEMERIS_TYPE":0,"CLASSIFICATION_TYPE":"U","NORAD_CAT_ID":68760,"ELEMENT_SET_NO":999,"REV_AT_EPOCH":171,"BSTAR":2.0135e-5,"MEAN_MOTION_DOT":4.5e-7,"MEAN_MOTION_DDOT":0},{"OBJECT_NAME":"CZ-4C R/B","OBJECT_ID":"2026-084B","EPOCH":"2026-04-22T12:42:34.106688","MEAN_MOTION":14.88539786,"ECCENTRICITY":0.01239091,"INCLINATION":98.2898,"RA_OF_ASC_NODE":187.1811,"ARG_OF_PERICENTER":27.3721,"MEAN_ANOMALY":333.3951,"EPHEMERIS_TYPE":0,"CLASSIFICATION_TYPE":"U","NORAD_CAT_ID":68761,"ELEMENT_SET_NO":999,"REV_AT_EPOCH":80,"BSTAR":2.8110763e-5,"MEAN_MOTION_DOT":2.3e-6,"MEAN_MOTION_DDOT":0},{"OBJECT_NAME":"2026-083H","OBJECT_ID":"2026-083H","EPOCH":"2026-04-28T07:37:58.463328","MEAN_MOTION":15.06818523,"ECCENTRICITY":0.00116236,"INCLINATION":96.9524,"RA_OF_ASC_NODE":257.5074,"ARG_OF_PERICENTER":214.4978,"MEAN_ANOMALY":145.5498,"EPHEMERIS_TYPE":0,"CLASSIFICATION_TYPE":"U","NORAD_CAT_ID":68762,"ELEMENT_SET_NO":999,"REV_AT_EPOCH":169,"BSTAR":0.0001890883,"MEAN_MOTION_DOT":2.767e-5,"MEAN_MOTION_DDOT":0},{"OBJECT_NAME":"2026-083J","OBJECT_ID":"2026-083J","EPOCH":"2026-04-28T07:37:30.435168","MEAN_MOTION":15.06862836,"ECCENTRICITY":0.00118116,"INCLINATION":96.9529,"RA_OF_ASC_NODE":257.5111,"ARG_OF_PERICENTER":214.6039,"MEAN_ANOMALY":145.4423,"EPHEMERIS_TYPE":0,"CLASSIFICATION_TYPE":"U","NORAD_CAT_ID":68763,"ELEMENT_SET_NO":999,"REV_AT_EPOCH":169,"BSTAR":0.00019667259,"MEAN_MOTION_DOT":2.884e-5,"MEAN_MOTION_DDOT":0},{"OBJECT_NAME":"2026-083K","OBJECT_ID":"2026-083K","EPOCH":"2026-04-28T07:36:55.353312","MEAN_MOTION":15.06918166,"ECCENTRICITY":0.00112076,"INCLINATION":96.9528,"RA_OF_ASC_NODE":257.5106,"ARG_OF_PERICENTER":210.4954,"MEAN_ANOMALY":149.5624,"EPHEMERIS_TYPE":0,"CLASSIFICATION_TYPE":"U","NORAD_CAT_ID":68764,"ELEMENT_SET_NO":999,"REV_AT_EPOCH":169,"BSTAR":0.0001915744,"MEAN_MOTION_DOT":2.812e-5,"MEAN_MOTION_DDOT":0},{"OBJECT_NAME":"STARLINK-37168","OBJECT_ID":"2026-086A","EPOCH":"2026-04-27T13:35:59.077536","MEAN_MOTION":15.94230689,"ECCENTRICITY":0.000249,"INCLINATION":97.2809,"RA_OF_ASC_NODE":152.9834,"ARG_OF_PERICENTER":345.0782,"MEAN_ANOMALY":15.0419,"EPHEMERIS_TYPE":0,"CLASSIFICATION_TYPE":"U","NORAD_CAT_ID":68766,"ELEMENT_SET_NO":999,"REV_AT_EPOCH":118,"BSTAR":-0.00028796518,"MEAN_MOTION_DOT":-0.00107237,"MEAN_MOTION_DDOT":6.228719e-6},{"OBJECT_NAME":"STARLINK-37174","OBJECT_ID":"2026-086B","EPOCH":"2026-04-27T13:35:23.593056","MEAN_MOTION":15.94414837,"ECCENTRICITY":0.00022561,"INCLINATION":97.2809,"RA_OF_ASC_NODE":152.9838,"ARG_OF_PERICENTER":348.1565,"MEAN_ANOMALY":11.9657,"EPHEMERIS_TYPE":0,"CLASSIFICATION_TYPE":"U","NORAD_CAT_ID":68767,"ELEMENT_SET_NO":999,"REV_AT_EPOCH":118,"BSTAR":3.5746692e-5,"MEAN_MOTION_DOT":0.00012651,"MEAN_MOTION_DDOT":2.287718e-6}]
